{"type":"FeatureCollection","metadata":{"fire":"Palisades Fire","timestamp":"2025-01-10T14:33:00Z","reported_acres":21317,"source":"NIFC WFIGS Interagency Fire Perimeters (2025-CALFD-000738)","note":"Final perimeter is official NIFC/WFIGS data. Intermediate timestamps derived by clipping final perimeter to match ICS-209 reported acreages."},"features":[{"type":"Feature","properties":{"incident_name":"Palisades Fire","unique_fire_id":"2025-CALFD-000738","timestamp":"2025-01-10T14:33:00Z","label":"Day 4 \u2013 Winds Ease","reported_acres":21317,"gis_acres_approx":22357,"percent_contained":8,"county":"Los Angeles","state":"CA","ignition_point":{"lon":-118.526,"lat":34.049},"description":"Fire at 21,317 acres; winds beginning to ease; 8% containment achieved","data_source":"NIFC WFIGS (final perimeter); progression stages approximated from ICS-209 acreage reports"},"geometry":{"type":"MultiPolygon","coordinates":[[[[-118.569559643853,34.0883711282595],[-118.569532637276,34.0874160094548],[-118.567867240495,34.0874020219942],[-118.568107999983,34.0878980000034],[-118.566837999697,34.0895480001615],[-118.565375999512,34.0891629995931],[-118.564068828342,34.0897314366077],[-118.563823306586,34.0910713687308],[-118.55982400042,34.0917189998307],[-118.559975000202,34.0923719996279],[-118.560723999503,34.0927170002909],[-118.561624000155,34.0922159999461],[-118.561596999766,34.0930670002882],[-118.558940999667,34.0931529998916],[-118.559031000052,34.0940310002127],[-118.56086509796,34.0937604186676],[-118.56152939446,34.0942549012373],[-118.560866745357,34.0955749553065],[-118.561190000459,34.0968240004112],[-118.559757999824,34.0973759997741],[-118.559470999537,34.0979269995541],[-118.559986000101,34.0988680003755],[-118.563912000346,34.0974540002798],[-118.563144690355,34.0996742990606],[-118.564155318768,34.099991369983],[-118.564450083529,34.10121918939],[-118.563451998254,34.1024442454488],[-118.56412689305,34.1042314156324],[-118.563210330235,34.1044946134066],[-118.563134879533,34.1051488268865],[-118.560441568942,34.1072177089925],[-118.559395151237,34.1095503919004],[-118.558013347418,34.1093744153729],[-118.557684683605,34.1101777258007],[-118.558557537952,34.1098005595221],[-118.558152352,34.1102885336901],[-118.558381783357,34.1114021842466],[-118.557708575176,34.1129429487506],[-118.557953334301,34.1133968359808],[-118.557594655473,34.1135097380499],[-118.558208614643,34.1143280055503],[-118.557836251248,34.1145464595303],[-118.557946707934,34.1158420584874],[-118.558590955595,34.1172195544524],[-118.557968074266,34.1179321090845],[-118.558993207079,34.1194974037424],[-118.558374855294,34.1209054725161],[-118.556485874027,34.1221396295433],[-118.557184326508,34.1221468575338],[-118.557290249034,34.1228460769758],[-118.556378011886,34.1231797689366],[-118.55636578468604,34.12411786484361],[-118.5411129416667,34.125251181617266],[-118.52540485731878,34.125597051928104],[-118.52126891747831,34.12414789419412],[-118.5172722830154,34.12048602811604],[-118.514046859536,34.115666177046045],[-118.51061550041251,34.10822816025172],[-118.50763713349824,34.09904618714565],[-118.50579566508124,34.09137073394955],[-118.506133000213,34.0903929996778],[-118.50557223894636,34.09028566556704],[-118.50530448107513,34.088929138877994],[-118.505909000376,34.086819999999],[-118.506721231516,34.0868455939278],[-118.507948999625,34.0854469997695],[-118.509633999748,34.0854180003315],[-118.5101091184,34.0840867622903],[-118.509923000148,34.0834180002827],[-118.509239999158,34.0832109997767],[-118.511207000482,34.0821909998129],[-118.511028000467,34.0815839999301],[-118.513067000373,34.0813640000431],[-118.514302999894,34.0817280001166],[-118.512515000455,34.0798580002312],[-118.512099000408,34.0782059999776],[-118.509785000151,34.0744980000407],[-118.506823000278,34.0709469996069],[-118.505356999778,34.0701990002826],[-118.504466000063,34.0669430000937],[-118.50238688815061,34.06643116113488],[-118.502295999741,34.0642780004324],[-118.503318999608,34.0625720003916],[-118.50450500044,34.0626250004462],[-118.504537000282,34.0619350000353],[-118.505397999521,34.0617819996114],[-118.505540000097,34.0610069995832],[-118.504584000148,34.0611910000653],[-118.504381000489,34.0607100001898],[-118.504499000144,34.0600980000593],[-118.505204999843,34.0599859996069],[-118.504882000484,34.0592949997023],[-118.505832999588,34.0591609996577],[-118.506053000163,34.0584940002659],[-118.504949999678,34.0565450000555],[-118.505721000442,34.054397999923],[-118.505066999767,34.0537859999726],[-118.5068970005,34.0523199998058],[-118.506603000543,34.0512439996583],[-118.507200999865,34.0511379998896],[-118.507871999465,34.0522189999767],[-118.508950000483,34.052320000103],[-118.509628999467,34.0519709998632],[-118.509573000453,34.0512859997592],[-118.509005000052,34.0505529997207],[-118.507830999678,34.0504789997306],[-118.508165000397,34.0499850003027],[-118.50910700053,34.0499709997542],[-118.510711999689,34.0511219995806],[-118.511409000439,34.0509410002346],[-118.511832000205,34.0502039997338],[-118.512006000121,34.0494650004251],[-118.511329999577,34.0487469996576],[-118.511711000288,34.0482260003474],[-118.510016999831,34.0482810001991],[-118.50917800025,34.0476439998617],[-118.510990000318,34.0469539999859],[-118.510532000488,34.0459840001853],[-118.510601000444,34.044396999625],[-118.51136200005,34.0440230004227],[-118.510923000311,34.0458099997916],[-118.511440999785,34.0472600003207],[-118.512866000424,34.0481050000117],[-118.513579000192,34.0464930001664],[-118.514344999464,34.0459399999532],[-118.515490999551,34.0460489999491],[-118.515298999807,34.0453889999093],[-118.516817999572,34.044720000012],[-118.517650000241,34.0416170003745],[-118.518589999954,34.041274000011],[-118.51829799976,34.0405610004141],[-118.520739999578,34.0408109995819],[-118.520485000175,34.0397499999687],[-118.519648000524,34.0398839997528],[-118.520315999888,34.0386980003911],[-118.519310999678,34.0384850003542],[-118.519848000058,34.0380489999945],[-118.520680000251,34.038238999744],[-118.52078699977,34.0370070002803],[-118.522763000439,34.038665000385],[-118.523260999515,34.0384370000861],[-118.522899999556,34.0370989995777],[-118.525382458374,34.0335396466582],[-118.525583891257,34.0325938684295],[-118.52282172591129,34.030898993197184],[-118.52410982982386,34.03079658396797],[-118.534405667233,34.0348573271064],[-118.535237000305,34.0356740003138],[-118.535217000361,34.0365640003276],[-118.535920999725,34.0359410000157],[-118.536565999537,34.0360689999989],[-118.53962300006,34.0378090004467],[-118.538758999985,34.0384089999198],[-118.538652999625,34.0391070000125],[-118.540903000356,34.0385120002917],[-118.540394999726,34.0391069999486],[-118.541457000432,34.0388290001241],[-118.546640000161,34.0396570000646],[-118.550194000129,34.0395849997466],[-118.552773000259,34.0389680003459],[-118.553918000434,34.0396910002871],[-118.553593000526,34.040639000291],[-118.554737000505,34.0410030002353],[-118.555574000071,34.0404849999557],[-118.556467999841,34.0414890002859],[-118.554979000381,34.0413340001116],[-118.554862000243,34.0418090002652],[-118.553891000137,34.0418080000033],[-118.553150999536,34.043103999727],[-118.552735000171,34.0428880000194],[-118.553218999829,34.0419029998869],[-118.552087000469,34.0415799997987],[-118.55242899981,34.0408609999347],[-118.55189000038,34.0407270000996],[-118.551322999653,34.0413350002128],[-118.551746999957,34.0421769999541],[-118.550801000409,34.0439489998038],[-118.551360000197,34.0458820001199],[-118.552280999683,34.046781000057],[-118.551460000316,34.0477429998729],[-118.551805999618,34.0520940000362],[-118.553088999837,34.0528489999808],[-118.553456999544,34.0524470000663],[-118.552778000095,34.0508000001388],[-118.55285799958,34.0495789998579],[-118.553922999533,34.0493519996842],[-118.554251000509,34.0487090003988],[-118.55349800032,34.0479139996407],[-118.552879000052,34.0458190004246],[-118.553876999576,34.0442239999004],[-118.55421400033,34.0442930000858],[-118.554143999997,34.0453329999414],[-118.555920999764,34.0457269999547],[-118.556515000033,34.045444000321],[-118.55684599946,34.0442800004325],[-118.55600699977,34.04379200022],[-118.555358999576,34.0445969997671],[-118.55431199973,34.0435259997815],[-118.55364500041,34.0443530001342],[-118.553025000354,34.0438540003933],[-118.555533000485,34.041787999839],[-118.556681999614,34.0425410003246],[-118.557729000071,34.0424929998909],[-118.558557999768,34.0418350003847],[-118.557998000519,34.0409340002218],[-118.556643999591,34.0405579998226],[-118.557288000203,34.0404010001357],[-118.55661700023,34.0392940003195],[-118.556968000349,34.0390610002265],[-118.558397000387,34.04012899971],[-118.559128000505,34.0396199997628],[-118.56042600041,34.0400859997759],[-118.560134999811,34.0406720003368],[-118.561192000479,34.0422790002324],[-118.559608000344,34.0422260003836],[-118.56040600001,34.0438110000598],[-118.559619000335,34.0436780003983],[-118.560836000028,34.0447819998609],[-118.561452000371,34.0445770002818],[-118.561375999658,34.0454179995629],[-118.562641000469,34.0452140001998],[-118.563974000488,34.0443770000381],[-118.564043999557,34.0435339996614],[-118.56448399981,34.0436929999311],[-118.564746000051,34.0446729997091],[-118.564273999732,34.0454700004057],[-118.564621000041,34.0461829997029],[-118.563892000003,34.04571299977],[-118.563335999912,34.046167000101],[-118.563077000265,34.045748000103],[-118.562332000346,34.0459780003447],[-118.563758000247,34.0466430003588],[-118.565291000322,34.0466469996857],[-118.566276000079,34.0451680002532],[-118.566575999911,34.0437370000597],[-118.566036000418,34.0439120001349],[-118.566032999873,34.0429689997289],[-118.565257000143,34.0437150001994],[-118.564075999717,34.0428319999606],[-118.563031000413,34.0436049999565],[-118.562931000379,34.0426179996436],[-118.562153999486,34.0422369997719],[-118.561790999869,34.0407399999343],[-118.567100000163,34.0418510002945],[-118.567780000258,34.0437040002842],[-118.566538999742,34.0454909998089],[-118.566772999595,34.0462340003012],[-118.567741000429,34.0465169998407],[-118.566633999534,34.046633999717],[-118.565072999667,34.0479069999453],[-118.566198000259,34.0484180003101],[-118.565650000398,34.0485090002457],[-118.565948999881,34.0489539996208],[-118.567390999537,34.0480160002849],[-118.570127999975,34.0489179999564],[-118.570700999816,34.0486819999807],[-118.569583000538,34.0478310001353],[-118.569244999766,34.0458779996039],[-118.568341999758,34.0445499995611],[-118.568677999475,34.0422339999112],[-118.572243999815,34.0418789998543],[-118.575933000435,34.0400140003691],[-118.579984999969,34.0401690000988],[-118.583221999519,34.0387730004187],[-118.584375999999,34.0387029996447],[-118.585663000379,34.0393089998675],[-118.586638999471,34.0385300004341],[-118.592295000025,34.039614000343],[-118.595114999855,34.0397099999752],[-118.596712000381,34.0392419997798],[-118.603226999795,34.0394920000091],[-118.606708999952,34.0385119997261],[-118.608274000394,34.0369240001214],[-118.609906999731,34.036446000346],[-118.624214000449,34.0377390003367],[-118.627112000523,34.036967999829],[-118.633093882722,34.0374885829718],[-118.636344717324,34.0371986834107],[-118.638077000041,34.0365669997987],[-118.647443999913,34.0384829998201],[-118.64928908532936,34.03803630104472],[-118.66198054970702,34.04039240107405],[-118.664742111401,34.041037397504596],[-118.663642236822,34.0411111331263],[-118.663899000295,34.042478999742],[-118.661837345888,34.044638121803],[-118.66251044118,34.0450208324041],[-118.662241222758,34.0460297571402],[-118.663571999898,34.0479599998495],[-118.663080000247,34.0481930004261],[-118.659808000021,34.0471079996337],[-118.659751000361,34.0480529999971],[-118.661362000094,34.0489679996043],[-118.662974999511,34.0515080003266],[-118.663003999758,34.0529599995763],[-118.663933999688,34.0536930000069],[-118.662669000471,34.0540640002269],[-118.663864000234,34.0550370003414],[-118.663481000066,34.0563599995552],[-118.665213999483,34.0579270001573],[-118.667311999652,34.0574490000793],[-118.668198000164,34.0579810000256],[-118.668049999576,34.0591510002992],[-118.669160000534,34.0601430000377],[-118.668679999648,34.0614079996072],[-118.669923000139,34.0622280004284],[-118.66876400036,34.0638770001677],[-118.66891700008,34.0644570003176],[-118.671090000488,34.0636939998022],[-118.671525262895,34.0628488519779],[-118.675935050998,34.0617818330557],[-118.67632465512,34.0623805105411],[-118.675774415299,34.0638659461437],[-118.67695553487248,34.06457817872115],[-118.67460147330519,34.06943556574453],[-118.67117359398469,34.074812543849944],[-118.66723599947692,34.07972853681094],[-118.666830739694,34.0792715421768],[-118.666482487087,34.0804982380841],[-118.665442579095,34.0810012392842],[-118.66309211286,34.0806500168907],[-118.664054823528,34.0802773340275],[-118.663868131552,34.0794591054989],[-118.664805945595,34.079158145608],[-118.664930946006,34.0787258898063],[-118.664210924359,34.0781804499129],[-118.664509495378,34.0774213301488],[-118.662689714706,34.0781242181435],[-118.660000358313,34.0773330794169],[-118.658242761993,34.0789497434356],[-118.657002370954,34.079127614049],[-118.654043392669,34.0780160784872],[-118.65322314404,34.0785775071517],[-118.651536328789,34.0784496933048],[-118.650368089497,34.0797106460917],[-118.647663064159,34.0801396726355],[-118.64512212102,34.0812485287504],[-118.643052000016,34.0829940001135],[-118.638927463534,34.0835434287185],[-118.637266718048,34.0846304869029],[-118.635578375605,34.0829481263781],[-118.634937506851,34.083213340921],[-118.635180981673,34.082602755605],[-118.634633140352,34.081955510063],[-118.634988512949,34.0814325383219],[-118.633731928202,34.0808934624291],[-118.632760110087,34.0811910162886],[-118.632594523078,34.0802043327902],[-118.633507578492,34.0789551856682],[-118.632245355607,34.0778898705027],[-118.629852847024,34.0773356457035],[-118.629231931246,34.0752520080497],[-118.628398012218,34.0744045844426],[-118.62504073634,34.0744114286248],[-118.624861978708,34.0753427771086],[-118.624450915561,34.0753561042297],[-118.622589293757,34.0745658781961],[-118.622949303428,34.0737781324696],[-118.62259042598,34.0732875875919],[-118.620740999936,34.0741399996579],[-118.620427348906,34.0736052892265],[-118.620723884596,34.0731978923398],[-118.619595152279,34.0726273903289],[-118.61924125201,34.0729260948897],[-118.619501850158,34.0733539551282],[-118.618370982066,34.0728652952528],[-118.617979123941,34.0734795079192],[-118.616815000104,34.0734700004352],[-118.615805999525,34.0726530000181],[-118.616403965267,34.0718211525033],[-118.615632858806,34.0716825604221],[-118.615964788,34.0721144012462],[-118.615315868461,34.0720939391201],[-118.61495988332,34.0727941916329],[-118.616057121305,34.0734733768961],[-118.613891782987,34.0745158941517],[-118.614035706621,34.0753047498107],[-118.612168000247,34.0754280001633],[-118.611164596872,34.0750294169541],[-118.611213576205,34.0745934788039],[-118.609370867016,34.0742966759882],[-118.608924000886,34.0732789999205],[-118.609393265319,34.0724776064494],[-118.608580144613,34.0719945216145],[-118.608126000487,34.0697699998388],[-118.607123000244,34.0680180002128],[-118.606361255024,34.0680111000972],[-118.606102639154,34.0692045130652],[-118.604706627999,34.0683635409461],[-118.603142202953,34.0697067546504],[-118.601887412811,34.0697664725756],[-118.601061182351,34.0688999993217],[-118.599858713633,34.0704178839865],[-118.599707764182,34.0715580918064],[-118.600481539217,34.0720483848001],[-118.59994191995,34.0720952004933],[-118.600136006684,34.0725867336619],[-118.59952145826,34.0729667818774],[-118.599826693617,34.0734183863256],[-118.598991627791,34.0747589899971],[-118.597283903811,34.0757537428343],[-118.596958148987,34.0752376712014],[-118.596285951077,34.0760271277694],[-118.59548796183,34.0759120538578],[-118.593974083815,34.0769699188119],[-118.594066104205,34.0775833248197],[-118.594901967101,34.0779662598205],[-118.594946000279,34.0804460003778],[-118.596191000216,34.0810589998003],[-118.5971020384,34.0827678463169],[-118.599712145408,34.085283274233],[-118.600552853952,34.0874996350115],[-118.599979922594,34.0882663389],[-118.597746980131,34.0876976657165],[-118.597587023941,34.0880558828001],[-118.596773221863,34.0872897597175],[-118.595385642324,34.0874865848684],[-118.596400677063,34.0857517292532],[-118.595119441501,34.0855016584643],[-118.595423894288,34.0842784861636],[-118.594845476456,34.0840871359067],[-118.594752058475,34.0834076875343],[-118.594005261501,34.0835176036767],[-118.593729519873,34.0828731841702],[-118.592629845583,34.0841069269226],[-118.592805681581,34.084692194763],[-118.59212553799,34.0850965635537],[-118.591700864544,34.0863620146466],[-118.591969948414,34.0867950341051],[-118.590842905962,34.0874730164351],[-118.590631228868,34.0883515535185],[-118.58966423796,34.0882930809067],[-118.589999077871,34.089092289909],[-118.589227893211,34.0898537803818],[-118.58801312549,34.0902429346284],[-118.587310999699,34.0892959996893],[-118.586754000295,34.0901019996436],[-118.582669001069,34.092290999995],[-118.581923763486,34.0916138975712],[-118.580753005305,34.0918505890763],[-118.578902887034,34.0892618381803],[-118.577389790282,34.0890507715778],[-118.576864317082,34.087454378326],[-118.574537529527,34.0873456352446],[-118.573639467765,34.0881917556885],[-118.57286486399,34.0880337572339],[-118.572325658676,34.0886613106999],[-118.573260505971,34.0893187528824],[-118.572662832481,34.0898914491161],[-118.571988695916,34.0891221296054],[-118.570951009209,34.0891177517778],[-118.569559643853,34.0883711282595]]],[[[-118.502274000279,34.0646660000507],[-118.50226384927198,34.064673274936425],[-118.50226262629413,34.0646550228515],[-118.502274000279,34.0646660000507]]],[[[-118.66535873856989,34.04118701722006],[-118.665185931857,34.0411679130537],[-118.6651026398143,34.04112487687841],[-118.66535873856989,34.04118701722006]]],[[[-118.518405999523,34.0359589997435],[-118.517682000147,34.0379960000045],[-118.518039000229,34.0384990003405],[-118.517599000061,34.0387589996599],[-118.517217999836,34.0383579995503],[-118.517481999495,34.0376819996994],[-118.516775000106,34.0369410000846],[-118.517544999571,34.0359749997315],[-118.518405999523,34.0359589997435]]],[[[-118.518192999699,34.0349750004217],[-118.518905999711,34.0350379999731],[-118.518954999593,34.0355389998795],[-118.518407999814,34.0356629997237],[-118.518192999699,34.0349750004217]]],[[[-118.518551000295,34.0393959999162],[-118.518779999483,34.0391200002774],[-118.518912000344,34.0392649997078],[-118.518551000295,34.0393959999162]]],[[[-118.518658000288,34.0342229997717],[-118.519090000242,34.034481999917],[-118.518847999484,34.0345669999787],[-118.518658000288,34.0342229997717]]],[[[-118.51916281961235,34.03148228125449],[-118.519532747936,34.0315740685194],[-118.519173223809,34.0315628859144],[-118.51916281961235,34.03148228125449]]],[[[-118.519213000223,34.0339960002766],[-118.51951799956,34.0338019999549],[-118.519336999697,34.034062999913],[-118.519213000223,34.0339960002766]]],[[[-118.519841999512,34.0328690001035],[-118.520358999829,34.0336960001803],[-118.520083000372,34.0339810001906],[-118.519450999823,34.0331169995485],[-118.519841999512,34.0328690001035]]],[[[-118.53971500052,34.0371299997379],[-118.54044900034,34.0375510001598],[-118.540534999885,34.0376799998074],[-118.53987599962,34.0374060002973],[-118.53971500052,34.0371299997379]]],[[[-118.555475000418,34.0403130000784],[-118.555655000201,34.0396750000596],[-118.556059999741,34.0400939999627],[-118.555475000418,34.0403130000784]]],[[[-118.55644299958,34.0401469996244],[-118.556643999867,34.0401890001487],[-118.556431999874,34.040230999833],[-118.55644299958,34.0401469996244]]],[[[-118.560834999506,34.0441359999366],[-118.560953000259,34.044266000169],[-118.56085599968,34.0442399996882],[-118.560834999506,34.0441359999366]]],[[[-118.561200999465,34.0424789998043],[-118.561828999923,34.0424270001737],[-118.561833999947,34.0432569999493],[-118.561551999505,34.0433109998709],[-118.561200999465,34.0424789998043]]],[[[-118.568333000438,34.0471070000171],[-118.568568000376,34.0473760003376],[-118.56855699991,34.0476950004062],[-118.568206999652,34.0475830003699],[-118.568333000438,34.0471070000171]]]]}}]}