{"type":"FeatureCollection","metadata":{"fire":"Palisades Fire","timestamp":"2025-01-07T18:30:00Z","reported_acres":1262,"source":"NIFC WFIGS Interagency Fire Perimeters (2025-CALFD-000738)","note":"Final perimeter is official NIFC/WFIGS data. Intermediate timestamps derived by clipping final perimeter to match ICS-209 reported acreages."},"features":[{"type":"Feature","properties":{"incident_name":"Palisades Fire","unique_fire_id":"2025-CALFD-000738","timestamp":"2025-01-07T18:30:00Z","label":"Day 1 \u2013 Ignition","reported_acres":1262,"gis_acres_approx":2493,"percent_contained":0,"county":"Los Angeles","state":"CA","ignition_point":{"lon":-118.526,"lat":34.049},"description":"Fire ignites near Palisades Drive; explosive growth under 80mph Santa Ana winds","data_source":"NIFC WFIGS (final perimeter); progression stages approximated from ICS-209 acreage reports"},"geometry":{"type":"MultiPolygon","coordinates":[[[[-118.551360000197,34.0458820001199],[-118.551805999618,34.0520940000362],[-118.553088999837,34.0528489999808],[-118.55285799958,34.0495789998579],[-118.554251000509,34.0487090003988],[-118.5532377334757,34.04519764667656],[-118.564860000218,34.0467490002827],[-118.567635000293,34.0463839998025],[-118.565072999667,34.0479069999453],[-118.565948999881,34.0489539996208],[-118.570607000176,34.0488740003574],[-118.56908484471268,34.046444915379766],[-118.57414813529657,34.047199571825146],[-118.57809636424993,34.04834809785876],[-118.57860295950567,34.0499147554062],[-118.57304290698698,34.05738198264187],[-118.55941120950261,34.06341102520047],[-118.53627470464068,34.06728451521019],[-118.52585519360824,34.06763711519869],[-118.52360885921335,34.06604336567591],[-118.52027629608908,34.05352981389911],[-118.52016332882056,34.04834809785876],[-118.52193134149064,34.045782275625314],[-118.52858421768906,34.04456249716373],[-118.551360000197,34.0458820001199]]],[[[-118.5645719110657,34.0459753771668],[-118.56416300006,34.0460820000812],[-118.56414087669418,34.045936246181576],[-118.5645719110657,34.0459753771668]]],[[[-118.56363923183447,34.045892876614005],[-118.563335999912,34.046167000101],[-118.56321195805565,34.045856056099694],[-118.56363923183447,34.045892876614005]]],[[[-118.568206999652,34.0475830003699],[-118.568568000376,34.0473760003376],[-118.56855699991,34.0476950004062],[-118.568206999652,34.0475830003699]]]]}}]}